{
  "type": "FeatureCollection",
  "features": [
    {
      "type": "Feature",
      "properties": {
        "norad_id": 66376,
        "name": "SHIYAN-32 01",
        "group": "last-30-days",
        "lat": 47.848589535299496,
        "lon": -79.12251724985211,
        "alt_km": 427.9433417201153,
        "timestamp": "2025-12-02T23:34:14.289728+00:00",
        "meta_object_name": "SHIYAN-32 01",
        "meta_object_id": "2025-255A",
        "meta_epoch": "2025-12-02T18:36:39.929760",
        "meta_mean_motion": 15.42248662,
        "meta_eccentricity": 0.001336,
        "meta_inclination": 52.9966,
        "meta_ra_of_asc_node": 225.4337,
        "meta_arg_of_pericenter": 11.3621,
        "meta_mean_anomaly": 348.7682,
        "meta_ephemeris_type": 0,
        "meta_classification_type": "U",
        "meta_norad_cat_id": 66376,
        "meta_element_set_no": 999,
        "meta_rev_at_epoch": 381,
        "meta_bstar": 0.00060675,
        "meta_mean_motion_dot": 0.00026238,
        "meta_mean_motion_ddot": 0,
        "tle_line1": "1 66376U 25255A   25336.77546215  .00026238  00000+0  60675-3 0  9990",
        "tle_line2": "2 66376  52.9966 225.4337 0013360  11.3621 348.7682 15.42248662  3810"
      },
      "geometry": {
        "type": "Point",
        "coordinates": [
          -79.12251724985211,
          47.848589535299496
        ]
      }
    },
    {
      "type": "Feature",
      "properties": {
        "norad_id": 66377,
        "name": "CZ-11 DEB",
        "group": "last-30-days",
        "lat": 36.113543475054406,
        "lon": 10.940640094134265,
        "alt_km": 436.29613421251634,
        "timestamp": "2025-12-02T23:34:14.289738+00:00",
        "meta_object_name": "CZ-11 DEB",
        "meta_object_id": "2025-255B",
        "meta_epoch": "2025-12-02T07:27:35.402688",
        "meta_mean_motion": 15.43429232,
        "meta_eccentricity": 0.0013912,
        "meta_inclination": 52.9966,
        "meta_ra_of_asc_node": 227.5182,
        "meta_arg_of_pericenter": 7.4818,
        "meta_mean_anomaly": 352.6391,
        "meta_ephemeris_type": 0,
        "meta_classification_type": "U",
        "meta_norad_cat_id": 66377,
        "meta_element_set_no": 999,
        "meta_rev_at_epoch": 360,
        "meta_bstar": 0.0009775,
        "meta_mean_motion_dot": 0.00044379,
        "meta_mean_motion_ddot": 0,
        "tle_line1": "1 66377U 25255B   25336.31082642  .00044379  00000+0  97750-3 0  9990",
        "tle_line2": "2 66377  52.9966 227.5182 0013912   7.4818 352.6391 15.43429232  3602"
      },
      "geometry": {
        "type": "Point",
        "coordinates": [
          10.940640094134265,
          36.113543475054406
        ]
      }
    },
    {
      "type": "Feature",
      "properties": {
        "norad_id": 66378,
        "name": "SHIYAN-32 02",
        "group": "last-30-days",
        "lat": 15.926382534293216,
        "lon": 31.84473434806878,
        "alt_km": 440.18682342746433,
        "timestamp": "2025-12-02T23:34:14.289749+00:00",
        "meta_object_name": "SHIYAN-32 02",
        "meta_object_id": "2025-255C",
        "meta_epoch": "2025-12-02T18:13:17.123808",
        "meta_mean_motion": 15.44006466,
        "meta_eccentricity": 0.0012608,
        "meta_inclination": 52.9976,
        "meta_ra_of_asc_node": 225.3337,
        "meta_arg_of_pericenter": 9.7234,
        "meta_mean_anomaly": 350.4012,
        "meta_ephemeris_type": 0,
        "meta_classification_type": "U",
        "meta_norad_cat_id": 66378,
        "meta_element_set_no": 999,
        "meta_rev_at_epoch": 367,
        "meta_bstar": 0.0014858,
        "meta_mean_motion_dot": 0.00069194,
        "meta_mean_motion_ddot": 0,
        "tle_line1": "1 66378U 25255C   25336.75922597  .00069194  00000+0  14858-2 0  9990",
        "tle_line2": "2 66378  52.9976 225.3337 0012608   9.7234 350.4012 15.44006466  3674"
      },
      "geometry": {
        "type": "Point",
        "coordinates": [
          31.84473434806878,
          15.926382534293216
        ]
      }
    },
    {
      "type": "Feature",
      "properties": {
        "norad_id": 66379,
        "name": "SHIYAN-32 03",
        "group": "last-30-days",
        "lat": 51.978223193508036,
        "lon": -30.30264523871723,
        "alt_km": 430.7205601488786,
        "timestamp": "2025-12-02T23:34:14.289758+00:00",
        "meta_object_name": "SHIYAN-32 03",
        "meta_object_id": "2025-255D",
        "meta_epoch": "2025-12-02T18:28:41.424096",
        "meta_mean_motion": 15.42603222,
        "meta_eccentricity": 0.0015395,
        "meta_inclination": 52.9973,
        "meta_ra_of_asc_node": 225.3998,
        "meta_arg_of_pericenter": 12.26,
        "meta_mean_anomaly": 347.8775,
        "meta_ephemeris_type": 0,
        "meta_classification_type": "U",
        "meta_norad_cat_id": 66379,
        "meta_element_set_no": 999,
        "meta_rev_at_epoch": 369,
        "meta_bstar": 0.00056148,
        "meta_mean_motion_dot": 0.00024562,
        "meta_mean_motion_ddot": 0,
        "tle_line1": "1 66379U 25255D   25336.76992389  .00024562  00000+0  56148-3 0  9997",
        "tle_line2": "2 66379  52.9973 225.3998 0015395  12.2600 347.8775 15.42603222  3696"
      },
      "geometry": {
        "type": "Point",
        "coordinates": [
          -30.30264523871723,
          51.978223193508036
        ]
      }
    },
    {
      "type": "Feature",
      "properties": {
        "norad_id": 66380,
        "name": "STARLINK-35139",
        "group": "last-30-days",
        "lat": 36.67289143555887,
        "lon": -15.429394225304529,
        "alt_km": 442.05802143644905,
        "timestamp": "2025-12-02T23:34:14.289771+00:00",
        "meta_object_name": "STARLINK-35139",
        "meta_object_id": "2025-257A",
        "meta_epoch": "2025-12-02T12:00:05.998752",
        "meta_mean_motion": 15.395874,
        "meta_eccentricity": 9.62e-05,
        "meta_inclination": 53.1585,
        "meta_ra_of_asc_node": 312.9043,
        "meta_arg_of_pericenter": 91.4453,
        "meta_mean_anomaly": 163.6609,
        "meta_ephemeris_type": 0,
        "meta_classification_type": "U",
        "meta_norad_cat_id": 66380,
        "meta_element_set_no": 999,
        "meta_rev_at_epoch": 479,
        "meta_bstar": 0.00078761,
        "meta_mean_motion_dot": 0.00031199,
        "meta_mean_motion_ddot": 0,
        "tle_line1": "1 66380U 25257A   25336.50006943  .00031199  00000+0  78761-3 0  9994",
        "tle_line2": "2 66380  53.1585 312.9043 0000962  91.4453 163.6609 15.39587400  4790"
      },
      "geometry": {
        "type": "Point",
        "coordinates": [
          -15.429394225304529,
          36.67289143555887
        ]
      }
    },
    {
      "type": "Feature",
      "properties": {
        "norad_id": 66381,
        "name": "STARLINK-35158",
        "group": "last-30-days",
        "lat": 37.878189849011584,
        "lon": -13.695001606746398,
        "alt_km": 441.75459180068356,
        "timestamp": "2025-12-02T23:34:14.289783+00:00",
        "meta_object_name": "STARLINK-35158",
        "meta_object_id": "2025-257B",
        "meta_epoch": "2025-12-02T12:00:05.998752",
        "meta_mean_motion": 15.39584804,
        "meta_eccentricity": 0.0001233,
        "meta_inclination": 53.1584,
        "meta_ra_of_asc_node": 312.9001,
        "meta_arg_of_pericenter": 94.1436,
        "meta_mean_anomaly": 162.8018,
        "meta_ephemeris_type": 0,
        "meta_classification_type": "U",
        "meta_norad_cat_id": 66381,
        "meta_element_set_no": 999,
        "meta_rev_at_epoch": 485,
        "meta_bstar": 0.00078924,
        "meta_mean_motion_dot": 0.00031262,
        "meta_mean_motion_ddot": 0,
        "tle_line1": "1 66381U 25257B   25336.50006943  .00031262  00000+0  78924-3 0  9997",
        "tle_line2": "2 66381  53.1584 312.9001 0001233  94.1436 162.8018 15.39584804  4854"
      },
      "geometry": {
        "type": "Point",
        "coordinates": [
          -13.695001606746398,
          37.878189849011584
        ]
      }
    },
    {
      "type": "Feature",
      "properties": {
        "norad_id": 66382,
        "name": "STARLINK-35639",
        "group": "last-30-days",
        "lat": 50.29116641448616,
        "lon": 15.107704793391376,
        "alt_km": 441.3916717223565,
        "timestamp": "2025-12-02T23:34:14.289794+00:00",
        "meta_object_name": "STARLINK-35639",
        "meta_object_id": "2025-257C",
        "meta_epoch": "2025-12-02T12:00:05.998752",
        "meta_mean_motion": 15.42104335,
        "meta_eccentricity": 0.0001335,
        "meta_inclination": 53.1586,
        "meta_ra_of_asc_node": 312.854,
        "meta_arg_of_pericenter": 82.926,
        "meta_mean_anomaly": 196.3433,
        "meta_ephemeris_type": 0,
        "meta_classification_type": "U",
        "meta_norad_cat_id": 66382,
        "meta_element_set_no": 999,
        "meta_rev_at_epoch": 485,
        "meta_bstar": -0.079484,
        "meta_mean_motion_dot": -0.03039947,
        "meta_mean_motion_ddot": 0,
        "tle_line1": "1 66382U 25257C   25336.50006943 -.03039947  00000+0 -79484-1 0  9991",
        "tle_line2": "2 66382  53.1586 312.8540 0001335  82.9260 196.3433 15.42104335  4851"
      },
      "geometry": {
        "type": "Point",
        "coordinates": [
          15.107704793391376,
          50.29116641448616
        ]
      }
    }
  ]
}